22512,COSMOS 2234 [GLONASS],1993,675.73,-1.0,-,64.65,Inactive,0,MEO,Kazakhstan,Russia/USSR,Unknown,Unknown,Unknown,1 22512U 93010A   25103.56989347  .00000015  00000+0  00000+0 0  9991,2 22512  64.6529  84.8240 0022865 214.4607 144.6132  2.13103700249978,2.131037,0.0022865,MEO
22513,COSMOS 2236 [GLONASS],1993,675.72,-1.0,-,64.65,Inactive,0,MEO,Kazakhstan,Russia/USSR,Unknown,Unknown,Unknown,1 22513U 93010B   25103.22753028  .00000015  00000+0  00000+0 0  9990,2 22513  64.6472  84.7396 0004258  72.6518 109.4867  2.13104636250210,2.13104636,0.0004258,MEO
22514,COSMOS 2235 [GLONASS],1993,675.73,-1.0,-,64.66,Inactive,0,MEO,Kazakhstan,Russia/USSR,Unknown,Unknown,Unknown,1 22514U 93010C   25102.59165953  .00000017  00000+0  00000+0 0  9996,2 22514  64.6645  85.0789 0008975 216.1827 246.1494  2.13102661250111,2.13102661,0.0008975,MEO
23043,COSMOS 2276 [GLONASS],1994,675.74,-1.0,-,64.28,Inactive,0,MEO,Kazakhstan,Russia/USSR,Unknown,Unknown,Unknown,1 23043U 94021A   25097.15777233 -.00000028  00000+0  00000+0 0  9995,2 23043  64.2807 316.2415 0018170 187.5841 350.1664  2.13099237241204,2.13099237,0.001817,MEO
23044,COSMOS 2277 [GLONASS],1994,675.73,-1.0,-,64.27,Inactive,0,MEO,Kazakhstan,Russia/USSR,Unknown,Unknown,Unknown,1 23044U 94021B   25102.78871852 -.00000036  00000+0  00000+0 0  9993,2 23044  64.2659 315.9061 0055376 210.4897 149.5058  2.13103967241246,2.13103967,0.0055376,MEO
23045,COSMOS 2275 [GLONASS],1994,675.73,-1.0,-,64.25,Inactive,0,MEO,Kazakhstan,Russia/USSR,Unknown,Unknown,Unknown,1 23045U 94021C   25103.25183831 -.00000036  00000+0  00000+0 0  9990,2 23045  64.2541 315.7849 0028262  33.7384 148.4537  2.13101574241062,2.13101574,0.0028262,MEO
23203,COSMOS 2287 [GLONASS],1994,675.73,-1.0,-,65.42,Inactive,0,MEO,Kazakhstan,Russia/USSR,Unknown,Unknown,Unknown,1 23203U 94050A   25102.40958199 -.00000008  00000+0  00000+0 0  9990,2 23203  65.4190 216.1876 0011834  24.0906  31.4992  2.13101372238670,2.13101372,0.0011834,MEO
23204,COSMOS 2289 [GLONASS],1994,675.73,-1.0,-,65.41,Inactive,0,MEO,Kazakhstan,Russia/USSR,Unknown,Unknown,Unknown,1 23204U 94050B   25102.51448493 -.00000006  00000+0  00000+0 0  9992,2 23204  65.4077 216.0488 0008881 326.8433  33.0935  2.13102976238709,2.13102976,0.0008881,MEO
23205,COSMOS 2288 [GLONASS],1994,675.73,-1.0,-,65.41,Inactive,0,MEO,Kazakhstan,Russia/USSR,Unknown,Unknown,Unknown,1 23205U 94050C   25102.41543356 -.00000008  00000+0  00000+0 0  9998,2 23205  65.4142 216.1249 0001815 303.7157  64.6724  2.13101384238658,2.13101384,0.0001815,MEO
23396,COSMOS 2295 [GLONASS],1994,675.73,-1.0,-,64.6,Inactive,0,MEO,Kazakhstan,Russia/USSR,Unknown,Unknown,Unknown,1 23396U 94076A   25103.56989347  .00000013  00000+0  00000+0 0  9993,2 23396  64.5984  83.9058 0038041 204.4940 145.6648  2.13102703236344,2.13102703,0.0038041,MEO
23397,COSMOS 2296 [GLONASS],1994,675.74,-1.0,-,64.59,Inactive,0,MEO,Kazakhstan,Russia/USSR,Unknown,Unknown,Unknown,1 23397U 94076B   25103.17889483  .00000013  00000+0  00000+0 0  9991,2 23397  64.5885  83.7800 0011159 261.0277 280.0743  2.13099701236322,2.13099701,0.0011159,MEO
23398,COSMOS 2294 [GLONASS],1994,675.73,-1.0,-,64.58,Inactive,0,MEO,Kazakhstan,Russia/USSR,Unknown,Unknown,Unknown,1 23398U 94076C   25102.44286160  .00000014  00000+0  00000+0 0  9995,2 23398  64.5813  83.6445 0004535  18.8329  98.2185  2.13101911236500,2.13101911,0.0004535,MEO
23511,COSMOS 2307 [GLONASS],1995,675.72,-1.0,-,64.3,Inactive,0,MEO,Kazakhstan,Russia/USSR,Unknown,Unknown,Unknown,1 23511U 95009A   25103.68586336 -.00000036  00000+0  00000+0 0  9999,2 23511  64.2989 316.4375 0005554 132.2397  46.6266  2.13105239234046,2.13105239,0.0005554,MEO
