[
    {
        "OBJECT_NAME": "COSMOS 2234 [GLONASS]",
        "OBJECT_ID": "1993-010A",
        "EPOCH": "2025-04-13T13:40:38.795808",
        "MEAN_MOTION": 2.131037,
        "ECCENTRICITY": 0.0022865,
        "INCLINATION": 64.6529,
        "RA_OF_ASC_NODE": 84.824,
        "ARG_OF_PERICENTER": 214.4607,
        "MEAN_ANOMALY": 144.6132,
        "EPHEMERIS_TYPE": 0,
        "CLASSIFICATION_TYPE": "U",
        "NORAD_CAT_ID": 22512,
        "ELEMENT_SET_NO": 999,
        "REV_AT_EPOCH": 24997,
        "BSTAR": 0,
        "MEAN_MOTION_DOT": 1.5e-07,
        "MEAN_MOTION_DDOT": 0
    },
    {
        "OBJECT_NAME": "COSMOS 2236 [GLONASS]",
        "OBJECT_ID": "1993-010B",
        "EPOCH": "2025-04-13T05:27:38.616192",
        "MEAN_MOTION": 2.13104636,
        "ECCENTRICITY": 0.0004258,
        "INCLINATION": 64.6472,
        "RA_OF_ASC_NODE": 84.7396,
        "ARG_OF_PERICENTER": 72.6518,
        "MEAN_ANOMALY": 109.4867,
        "EPHEMERIS_TYPE": 0,
        "CLASSIFICATION_TYPE": "U",
        "NORAD_CAT_ID": 22513,
        "ELEMENT_SET_NO": 999,
        "REV_AT_EPOCH": 25021,
        "BSTAR": 0,
        "MEAN_MOTION_DOT": 1.5e-07,
        "MEAN_MOTION_DDOT": 0
    },
    {
        "OBJECT_NAME": "COSMOS 2235 [GLONASS]",
        "OBJECT_ID": "1993-010C",
        "EPOCH": "2025-04-12T14:11:59.383392",
        "MEAN_MOTION": 2.13102661,
        "ECCENTRICITY": 0.0008975,
        "INCLINATION": 64.6645,
        "RA_OF_ASC_NODE": 85.0789,
        "ARG_OF_PERICENTER": 216.1827,
        "MEAN_ANOMALY": 246.1494,
        "EPHEMERIS_TYPE": 0,
        "CLASSIFICATION_TYPE": "U",
        "NORAD_CAT_ID": 22514,
        "ELEMENT_SET_NO": 999,
        "REV_AT_EPOCH": 25011,
        "BSTAR": 0,
        "MEAN_MOTION_DOT": 1.7e-07,
        "MEAN_MOTION_DDOT": 0
    },
    {
        "OBJECT_NAME": "COSMOS 2276 [GLONASS]",
        "OBJECT_ID": "1994-021A",
        "EPOCH": "2025-04-07T03:47:11.529312",
        "MEAN_MOTION": 2.13099237,
        "ECCENTRICITY": 0.001817,
        "INCLINATION": 64.2807,
        "RA_OF_ASC_NODE": 316.2415,
        "ARG_OF_PERICENTER": 187.5841,
        "MEAN_ANOMALY": 350.1664,
        "EPHEMERIS_TYPE": 0,
        "CLASSIFICATION_TYPE": "U",
        "NORAD_CAT_ID": 23043,
        "ELEMENT_SET_NO": 999,
        "REV_AT_EPOCH": 24120,
        "BSTAR": 0,
        "MEAN_MOTION_DOT": -2.8e-07,
        "MEAN_MOTION_DDOT": 0
    },
    {
        "OBJECT_NAME": "COSMOS 2277 [GLONASS]",
        "OBJECT_ID": "1994-021B",
        "EPOCH": "2025-04-12T18:55:45.280128",
        "MEAN_MOTION": 2.13103967,
        "ECCENTRICITY": 0.0055376,
        "INCLINATION": 64.2659,
        "RA_OF_ASC_NODE": 315.9061,
        "ARG_OF_PERICENTER": 210.4897,
        "MEAN_ANOMALY": 149.5058,
        "EPHEMERIS_TYPE": 0,
        "CLASSIFICATION_TYPE": "U",
        "NORAD_CAT_ID": 23044,
        "ELEMENT_SET_NO": 999,
        "REV_AT_EPOCH": 24124,
        "BSTAR": 0,
        "MEAN_MOTION_DOT": -3.6e-07,
        "MEAN_MOTION_DDOT": 0
    },
    {
        "OBJECT_NAME": "COSMOS 2275 [GLONASS]",
        "OBJECT_ID": "1994-021C",
        "EPOCH": "2025-04-13T06:02:38.829984",
        "MEAN_MOTION": 2.13101574,
        "ECCENTRICITY": 0.0028262,
        "INCLINATION": 64.2541,
        "RA_OF_ASC_NODE": 315.7849,
        "ARG_OF_PERICENTER": 33.7384,
        "MEAN_ANOMALY": 148.4537,
        "EPHEMERIS_TYPE": 0,
        "CLASSIFICATION_TYPE": "U",
        "NORAD_CAT_ID": 23045,
        "ELEMENT_SET_NO": 999,
        "REV_AT_EPOCH": 24106,
        "BSTAR": 0,
        "MEAN_MOTION_DOT": -3.6e-07,
        "MEAN_MOTION_DDOT": 0
    },
    {
        "OBJECT_NAME": "COSMOS 2287 [GLONASS]",
        "OBJECT_ID": "1994-050A",
        "EPOCH": "2025-04-12T09:49:47.883936",
        "MEAN_MOTION": 2.13101372,
        "ECCENTRICITY": 0.0011834,
        "INCLINATION": 65.419,
        "RA_OF_ASC_NODE": 216.1876,
        "ARG_OF_PERICENTER": 24.0906,
        "MEAN_ANOMALY": 31.4992,
        "EPHEMERIS_TYPE": 0,
        "CLASSIFICATION_TYPE": "U",
        "NORAD_CAT_ID": 23203,
        "ELEMENT_SET_NO": 999,
        "REV_AT_EPOCH": 23867,
        "BSTAR": 0,
        "MEAN_MOTION_DOT": -8e-08,
        "MEAN_MOTION_DDOT": 0
    },
    {
        "OBJECT_NAME": "COSMOS 2289 [GLONASS]",
        "OBJECT_ID": "1994-050B",
        "EPOCH": "2025-04-12T12:20:51.497952",
        "MEAN_MOTION": 2.13102976,
        "ECCENTRICITY": 0.0008881,
        "INCLINATION": 65.4077,
        "RA_OF_ASC_NODE": 216.0488,
        "ARG_OF_PERICENTER": 326.8433,
        "MEAN_ANOMALY": 33.0935,
        "EPHEMERIS_TYPE": 0,
        "CLASSIFICATION_TYPE": "U",
        "NORAD_CAT_ID": 23204,
        "ELEMENT_SET_NO": 999,
        "REV_AT_EPOCH": 23870,
        "BSTAR": 0,
        "MEAN_MOTION_DOT": -6e-08,
        "MEAN_MOTION_DDOT": 0
    },
    {
        "OBJECT_NAME": "COSMOS 2288 [GLONASS]",
        "OBJECT_ID": "1994-050C",
        "EPOCH": "2025-04-12T09:58:13.459584",
        "MEAN_MOTION": 2.13101384,
        "ECCENTRICITY": 0.0001815,
        "INCLINATION": 65.4142,
        "RA_OF_ASC_NODE": 216.1249,
        "ARG_OF_PERICENTER": 303.7157,
        "MEAN_ANOMALY": 64.6724,
        "EPHEMERIS_TYPE": 0,
        "CLASSIFICATION_TYPE": "U",
        "NORAD_CAT_ID": 23205,
        "ELEMENT_SET_NO": 999,
        "REV_AT_EPOCH": 23865,
        "BSTAR": 0,
        "MEAN_MOTION_DOT": -8e-08,
        "MEAN_MOTION_DDOT": 0
    },
    {
        "OBJECT_NAME": "COSMOS 2295 [GLONASS]",
        "OBJECT_ID": "1994-076A",
        "EPOCH": "2025-04-13T13:40:38.795808",
        "MEAN_MOTION": 2.13102703,
        "ECCENTRICITY": 0.0038041,
        "INCLINATION": 64.5984,
        "RA_OF_ASC_NODE": 83.9058,
        "ARG_OF_PERICENTER": 204.494,
        "MEAN_ANOMALY": 145.6648,
        "EPHEMERIS_TYPE": 0,
        "CLASSIFICATION_TYPE": "U",
        "NORAD_CAT_ID": 23396,
        "ELEMENT_SET_NO": 999,
        "REV_AT_EPOCH": 23634,
        "BSTAR": 0,
        "MEAN_MOTION_DOT": 1.3e-07,
        "MEAN_MOTION_DDOT": 0
    },
    {
        "OBJECT_NAME": "COSMOS 2296 [GLONASS]",
        "OBJECT_ID": "1994-076B",
        "EPOCH": "2025-04-13T04:17:36.513312",
        "MEAN_MOTION": 2.13099701,
        "ECCENTRICITY": 0.0011159,
        "INCLINATION": 64.5885,
        "RA_OF_ASC_NODE": 83.78,
        "ARG_OF_PERICENTER": 261.0277,
        "MEAN_ANOMALY": 280.0743,
        "EPHEMERIS_TYPE": 0,
        "CLASSIFICATION_TYPE": "U",
        "NORAD_CAT_ID": 23397,
        "ELEMENT_SET_NO": 999,
        "REV_AT_EPOCH": 23632,
        "BSTAR": 0,
        "MEAN_MOTION_DOT": 1.3e-07,
        "MEAN_MOTION_DDOT": 0
    },
    {
        "OBJECT_NAME": "COSMOS 2294 [GLONASS]",
        "OBJECT_ID": "1994-076C",
        "EPOCH": "2025-04-12T10:37:43.242240",
        "MEAN_MOTION": 2.13101911,
        "ECCENTRICITY": 0.0004535,
        "INCLINATION": 64.5813,
        "RA_OF_ASC_NODE": 83.6445,
        "ARG_OF_PERICENTER": 18.8329,
        "MEAN_ANOMALY": 98.2185,
        "EPHEMERIS_TYPE": 0,
        "CLASSIFICATION_TYPE": "U",
        "NORAD_CAT_ID": 23398,
        "ELEMENT_SET_NO": 999,
        "REV_AT_EPOCH": 23650,
        "BSTAR": 0,
        "MEAN_MOTION_DOT": 1.4e-07,
        "MEAN_MOTION_DDOT": 0
    },
    {
        "OBJECT_NAME": "COSMOS 2307 [GLONASS]",
        "OBJECT_ID": "1995-009A",
        "EPOCH": "2025-04-13T16:27:38.594304",
        "MEAN_MOTION": 2.13105239,
        "ECCENTRICITY": 0.0005554,
        "INCLINATION": 64.2989,
        "RA_OF_ASC_NODE": 316.4375,
        "ARG_OF_PERICENTER": 132.2397,
        "MEAN_ANOMALY": 46.6266,
        "EPHEMERIS_TYPE": 0,
        "CLASSIFICATION_TYPE": "U",
        "NORAD_CAT_ID": 23511,
        "ELEMENT_SET_NO": 999,
        "REV_AT_EPOCH": 23404,
        "BSTAR": 0,
        "MEAN_MOTION_DOT": -3.6e-07,
        "MEAN_MOTION_DDOT": 0
    }
]